GLOBALSTAR M057         
1 25943U 99058A   25197.57397718 -.00000040  00000+0  48508-3 0  9997
2 25943  51.9978 264.8077 0002859  84.3075 275.8101 12.24826236170535
GLOBALSTAR M059         
1 25944U 99058B   25197.91759808 -.00000100  00000+0 -17178-3 0  9995
2 25944  52.0012 126.7425 0001049  14.1036  73.8793 11.99980138577614
GLOBALSTAR M056         
1 25945U 99058C   25198.22738227 -.00000142  00000+0 -63513-3 0  9993
2 25945  51.9956 127.0928 0000599 267.5795 240.8642 12.04781119166299
GLOBALSTAR M031         
1 25946U 99058D   25197.94063889 -.00000054  00000+0  37042-3 0  9996
2 25946  51.9979  18.4256 0000678 205.8639 307.3939 12.16038270168164
GLOBALSTAR M039         
1 25961U 99062A   25198.09503165 -.00000085  00000+0  10487-3 0  9999
2 25961  51.9821 177.6225 0002806  51.3133 308.7984 12.62329976184024
GLOBALSTAR M034         
1 25962U 99062B   25197.62174906 -.00000126  00000+0 -71628-3 0  9996
2 25962  51.9886 294.8766 0014522  98.5019  10.2894 11.79445829141865
GLOBALSTAR M029         
1 25963U 99062C   25198.19791013 -.00000083  00000+0  42921-4 0  9990
2 25963  51.9823  13.9947 0002671 158.5534  12.4726 11.99898409172779
GLOBALSTAR M061         
1 25964U 99062D   25197.94059315 -.00000132  00000+0 -84621-3 0  9993
2 25964  51.9790 118.4754 0006563  20.7039  57.0353 11.76775901124688
